GLOBALSTAR M045         
1 25676U 99019A   25261.70617422 -.00000100  00000+0 -55794-4 0  9995
2 25676  51.9987  38.7170 0000958  88.3414  15.9512 12.27065799204875
GLOBALSTAR M019         
1 25677U 99019B   25261.16750428 -.00000080  00000+0  10586-3 0  9995
2 25677  51.9872 177.1636 0001336 118.1771  26.1459 12.13877455196434
GLOBALSTAR M044         
1 25678U 99019C   25261.90610557  .00000005  00000+0  12424-2 0  9994
2 25678  51.9952 138.1965 0005380 217.9805 229.1766 11.90258845182481
GLOBALSTAR M042         
1 25679U 99019D   25261.88000825 -.00000083  00000+0  82688-4 0  9991
2 25679  51.9999 146.4567 0003382 119.2512 321.9133 12.22087579196712
GLOBALSTAR M025         
1 25770U 99031A   25261.45752464 -.00000069  00000+0 -36503-4 0  9993
2 25770  51.9826 303.2075 0001919 300.1665 165.9707 11.22558925492184
GLOBALSTAR M049         
1 25771U 99031B   25261.46629952  .00000009  00000+0  25760-2 0  9993
2 25771  51.9918 342.6378 0003183 165.4243 194.6645 11.12121772127808
GLOBALSTAR M047         
1 25772U 99031C   25261.49048135 -.00000051  00000+0  50534-3 0  9991
2 25772  51.9864 330.6384 0016566  64.1167 296.1345 11.31929610481673
GLOBALSTAR M052         
1 25773U 99031D   25261.82574274 -.00000049  00000+0  56056-3 0  9999
2 25773  51.9848  89.1749 0002389 350.5221 108.2055 11.15060719488955
